[{"OBJECT_NAME":"STARLINK-11369 [DTC]","OBJECT_ID":"2024-220H","EPOCH":"2026-03-09T22:28:52.141440","MEAN_MOTION":15.70968962,"ECCENTRICITY":0.00015851,"INCLINATION":42.9982,"RA_OF_ASC_NODE":41.4375,"ARG_OF_PERICENTER":224.2395,"MEAN_ANOMALY":135.8347,"EPHEMERIS_TYPE":0,"CLASSIFICATION_TYPE":"U","NORAD_CAT_ID":62095,"ELEMENT_SET_NO":999,"REV_AT_EPOCH":7509,"BSTAR":0.0016968658,"MEAN_MOTION_DOT":0.00224478,"MEAN_MOTION_DDOT":0},{"OBJECT_NAME":"COSMOS 921 DEB","OBJECT_ID":"1977-055C","EPOCH":"2026-03-09T22:42:10.805760","MEAN_MOTION":15.70063735,"ECCENTRICITY":0.00183564,"INCLINATION":75.8082,"RA_OF_ASC_NODE":161.9867,"ARG_OF_PERICENTER":333.9317,"MEAN_ANOMALY":26.0991,"EPHEMERIS_TYPE":0,"CLASSIFICATION_TYPE":"U","NORAD_CAT_ID":39690,"ELEMENT_SET_NO":999,"REV_AT_EPOCH":65481,"BSTAR":0.0010474937,"MEAN_MOTION_DOT":0.0012919,"MEAN_MOTION_DDOT":0}]
